      2.10          N: GNSS NAV DATA                        RINEX VERSION / TYPE
fic2rin                                 05/04/2021 00:17:03 PGM / RUN BY / DATE
                                                            END OF HEADER
19 21  5  3  8  0  0.0-4.942994564772e-06 5.002220859751e-12 0.000000000000e+00
    4.500000000000e+01 5.709375000000e+01 3.879447308838e-09-3.738201180341e-01
    3.105029463768e-06 9.245188441128e-03 5.647540092468e-06 5.153629739761e+03
    1.152000000000e+05-2.589076757431e-07 2.271481905939e+00 4.284083843231e-08
    9.807646540188e-01 2.851875000000e+02 1.822099361249e+00-7.945330954926e-09
    1.139333172086e-10 1.000000000000e+00 2.156000000000e+03 0.000000000000e+00
    2.400000000000e+00 0.000000000000e+00-1.536682248116e-08 4.500000000000e+01
    1.080000000000e+05 4.000000000000e+00
24 21  5  3  8  0  0.0 5.321810021996e-05 2.614797267597e-11 0.000000000000e+00
    2.800000000000e+01 1.815625000000e+01 5.483085535378e-09 1.587750189746e+00
    9.778887033463e-07 1.106522919144e-02 7.232651114464e-06 5.153728229523e+03
    1.152000000000e+05-2.607703208923e-07 1.901926628593e-03 1.341104507446e-07
    9.354912732522e-01 2.290625000000e+02 7.396766981378e-01-8.447494729206e-09
   -1.700070814773e-10 1.000000000000e+00 2.156000000000e+03 0.000000000000e+00
    3.400000000000e+00 0.000000000000e+00 2.793967723846e-09 2.800000000000e+01
    1.080000000000e+05 4.000000000000e+00
21 21  5  3  8  0  0.0 1.154476776719e-04 2.728484105319e-12 0.000000000000e+00
    2.300000000000e+01-8.750000000000e+00 4.400183285296e-09-2.692582420088e+00
   -2.440065145493e-07 2.410411974415e-02 2.689659595490e-06 5.153697175980e+03
    1.152000000000e+05 1.564621925354e-07 3.139787460956e+00 2.961605787277e-07
    9.572352390900e-01 3.172500000000e+02-1.145659220825e+00-7.879613931834e-09
    2.339383158984e-10 1.000000000000e+00 2.156000000000e+03 0.000000000000e+00
    2.400000000000e+00 0.000000000000e+00-1.024454832077e-08 2.300000000000e+01
    1.080000000000e+05 4.000000000000e+00
13 21  5  3  8  0  0.0 1.273420639336e-04 4.661160346586e-12 0.000000000000e+00
    3.600000000000e+01-2.937500000000e+00 4.544832167645e-09 2.846007893481e+00
   -2.291053533554e-07 4.925227258354e-03 9.059906005859e-06 5.153675849915e+03
    1.152000000000e+05-2.980232238770e-08-8.443866103545e-01-5.960464477539e-08
    9.680137971345e-01 2.088125000000e+02 9.800969138390e-01-7.766752087828e-09
    3.060841782060e-10 1.000000000000e+00 2.156000000000e+03 0.000000000000e+00
    2.400000000000e+00 0.000000000000e+00-1.117587089539e-08 3.600000000000e+01
    1.080000000000e+05 4.000000000000e+00
 7 21  5  3  8  0  0.0 1.400774344802e-04 1.102762325900e-11 0.000000000000e+00
    4.000000000000e+01 2.500000000000e+01 5.136642533208e-09 6.539028048537e-01
    1.586973667145e-06 1.480197976343e-02 6.962567567825e-06 5.153757854462e+03
    1.152000000000e+05-6.332993507385e-08 7.974408435834e-02 1.285225152969e-07
    9.521133785668e-01 2.416250000000e+02-2.338990140556e+00-8.478567452081e-09
   -3.100129132822e-10 1.000000000000e+00 2.156000000000e+03 0.000000000000e+00
    2.400000000000e+00 0.000000000000e+00-1.117587089539e-08 4.000000000000e+01
    1.080000000000e+05 4.000000000000e+00
12 21  5  3  8  0  0.0-3.597466275096e-05-5.115907697473e-12 0.000000000000e+00
    1.000000000000e+02 5.484375000000e+01 4.171245177676e-09-1.090253450004e-01
    2.836808562279e-06 8.457060786895e-03 8.583068847656e-06 5.153750778198e+03
    1.152000000000e+05-5.960464477539e-08 1.189927158477e+00 8.754432201385e-08
    9.737931910580e-01 2.215312500000e+02 1.207038996099e+00-7.939973588913e-09
   -4.143029716675e-10 1.000000000000e+00 2.156000000000e+03 0.000000000000e+00
    2.400000000000e+00 0.000000000000e+00-1.257285475731e-08 1.000000000000e+02
    1.080000000000e+05 4.000000000000e+00
31 21  5  3  8  0  0.0-1.151170581579e-04-2.160049916711e-12 0.000000000000e+00
    5.800000000000e+01 2.153125000000e+01 4.968421240402e-09 8.541540228293e-02
    1.119449734688e-06 9.941639727913e-03 6.970018148422e-06 5.153771888733e+03
    1.152000000000e+05 1.080334186554e-07 9.669211465469e-02 5.587935447693e-08
    9.564360264624e-01 2.403125000000e+02 2.611886009708e-01-8.251057975398e-09
   -2.007226466182e-10 1.000000000000e+00 2.156000000000e+03 0.000000000000e+00
    2.400000000000e+00 0.000000000000e+00-1.303851604462e-08 5.800000000000e+01
    1.080000000000e+05 4.000000000000e+00
29 21  5  3  8  0  0.0-3.405627794564e-04-6.593836587854e-12 0.000000000000e+00
    8.200000000000e+01 8.012500000000e+01 3.856946371584e-09-2.693174656140e+00
    4.097819328308e-06 1.798963174224e-03 5.960464477539e-06 5.153649238586e+03
    1.152000000000e+05 5.774199962616e-08 2.238709403004e+00-1.490116119385e-08
    9.840868970893e-01 2.774687500000e+02 2.117817905216e+00-7.873542250353e-09
    3.821587755898e-11 1.000000000000e+00 2.156000000000e+03 0.000000000000e+00
    3.400000000000e+00 0.000000000000e+00-9.778887033463e-09 8.200000000000e+01
    1.080000000000e+05 4.000000000000e+00
16 21  5  3  8  0  0.0-3.192122094333e-04-6.025402399246e-12 0.000000000000e+00
    1.050000000000e+02 4.415625000000e+01 4.028024926263e-09-1.944027348199e+00
    2.278015017509e-06 1.223668945022e-02 8.506700396538e-06 5.153690620422e+03
    1.152000000000e+05 3.166496753693e-08 1.208689486609e+00-1.508742570877e-07
    9.738718302193e-01 2.224062500000e+02 6.749316114850e-01-7.646389931404e-09
   -3.046555472693e-10 1.000000000000e+00 2.156000000000e+03 0.000000000000e+00
    3.400000000000e+00 0.000000000000e+00-1.024454832077e-08 1.050000000000e+02
    1.080000000000e+05 4.000000000000e+00
30 21  5  3  8  0  0.0-4.210672341287e-04-5.002220859751e-12 0.000000000000e+00
    9.900000000000e+01 2.146875000000e+01 5.383795685272e-09 5.015436407458e-01
    1.138076186180e-06 5.149566335604e-03 6.381422281265e-06 5.153707406998e+03
    1.152000000000e+05-2.235174179077e-08 9.726874575940e-02-1.862645149231e-08
    9.373303075697e-01 2.387812500000e+02-2.798098144156e+00-8.465352615916e-09
   -2.821546100149e-10 1.000000000000e+00 2.156000000000e+03 0.000000000000e+00
    3.400000000000e+00 0.000000000000e+00 3.725290298462e-09 9.900000000000e+01
    1.080000000000e+05 4.000000000000e+00
27 21  5  3  8  0  0.0-1.235054805875e-04-6.707523425575e-12 0.000000000000e+00
    6.000000000000e+01 6.518750000000e+01 3.895162249142e-09-2.886583240110e+00
    3.363937139511e-06 9.422945207916e-03 6.554648280144e-06 5.153685846329e+03
    1.152000000000e+05-9.313225746155e-09 2.165718922383e+00-8.754432201385e-08
    9.760196689883e-01 2.609062500000e+02 6.159755549972e-01-7.780324081727e-09
    8.964659128322e-11 1.000000000000e+00 2.156000000000e+03 0.000000000000e+00
    2.400000000000e+00 0.000000000000e+00 1.862645149231e-09 6.000000000000e+01
    1.080000000000e+05 4.000000000000e+00
22 21  5  3  8  0  0.0-6.235418841243e-04 9.208633855451e-12 0.000000000000e+00
    8.900000000000e+01-8.531250000000e+01 5.111998649549e-09 2.444255442307e+00
   -4.660338163376e-06 7.054598070681e-03 6.368383765221e-06 5.153549692154e+03
    1.152000000000e+05 1.229345798492e-07-2.121472336021e+00 2.793967723846e-08
    9.344602217562e-01 2.434375000000e+02-9.847742901105e-01-8.262487022892e-09
    9.428964182777e-11 1.000000000000e+00 2.156000000000e+03 0.000000000000e+00
    2.400000000000e+00 0.000000000000e+00-1.769512891769e-08 8.900000000000e+01
    1.080000000000e+05 4.000000000000e+00
25 21  5  3  8  0  0.0 1.301160082221e-04 7.162270776462e-12 0.000000000000e+00
    8.100000000000e+01 5.134375000000e+01 4.523402703593e-09-4.023543775948e-01
    2.669170498848e-06 9.914398542605e-03 8.294358849525e-06 5.153635663986e+03
    1.152000000000e+05-1.676380634308e-08 1.116716240971e+00 9.872019290924e-08
    9.611789019651e-01 2.185312500000e+02 9.655663688350e-01-8.152482440760e-09
   -4.750197864808e-10 1.000000000000e+00 2.156000000000e+03 0.000000000000e+00
    2.400000000000e+00 0.000000000000e+00 5.587935447693e-09 8.100000000000e+01
    1.080000000000e+05 4.000000000000e+00
20 21  5  3  8  0  0.0 5.225655622780e-04-3.410605131648e-13 0.000000000000e+00
    8.800000000000e+01-9.984375000000e+01 5.057710673951e-09 1.233681474368e+00
   -5.250796675682e-06 6.058917846531e-03 6.990507245064e-06 5.151714008331e+03
    1.152000000000e+05 3.166496753693e-08-2.167898000305e+00 1.192092895508e-07
    9.377876260017e-01 2.340937500000e+02 3.029220972721e+00-8.347133405897e-09
    4.821629411647e-11 1.000000000000e+00 2.156000000000e+03 0.000000000000e+00
    2.400000000000e+00 0.000000000000e+00-8.381903171539e-09 8.800000000000e+01
    1.080000000000e+05 4.000000000000e+00
14 21  5  3  8  0  0.0 9.044539183378e-05-4.206412995700e-12 0.000000000000e+00
    7.000000000000e+00 3.934375000000e+01 4.460542942375e-09 3.287227819033e-01
    1.786276698112e-06 6.317709339783e-04 8.050352334976e-06 5.153752359390e+03
    1.152000000000e+05 6.891787052155e-08 1.163154372243e+00 4.284083843231e-08
    9.572984049668e-01 2.255312500000e+02 2.600054877716e+00-7.994975879979e-09
   -4.757341019492e-10 1.000000000000e+00 2.156000000000e+03 0.000000000000e+00
    2.400000000000e+00 0.000000000000e+00-7.916241884232e-09 2.630000000000e+02
    1.080000000000e+05 4.000000000000e+00
23 21  5  3  8  0  0.0 1.096166670322e-04-2.728484105319e-12 0.000000000000e+00
    1.130000000000e+02-1.034687500000e+02 4.443042213399e-09 8.287576406251e-01
   -5.276873707771e-06 1.146765775047e-03 7.780268788338e-06 5.153655536652e+03
    1.152000000000e+05 2.421438694000e-08-2.049069764140e+00 0.000000000000e+00
    9.637549368558e-01 2.319375000000e+02 2.586286072693e+00-8.007476400676e-09
    1.428630936784e-10 1.000000000000e+00 2.156000000000e+03 0.000000000000e+00
    2.400000000000e+00 0.000000000000e+00-8.381903171539e-09 8.810000000000e+02
    1.080000000000e+05 4.000000000000e+00
